SL-8 R/B                
1 15483U 85006B   26179.62835060  .00000158  00000+0  61080-4 0  9997
2 15483  74.0458  57.0105 0019142 302.3826  84.5025 14.37839168169976
SL-12 R/B(2)            
1 15772U 85042D   26179.56821150  .00000087  00000+0  60462-4 0  9990
2 15772  71.1064 213.4711 0036865 310.7227 162.7568 14.22007828130151
SL-14 R/B               
1 15945U 85069B   26179.54510267  .00000416  00000+0  44137-4 0  9990
2 15945  82.5274 280.6843 0018741 180.4116 179.7089 14.86523745189304
SL-16 R/B               
1 16182U 85097B   26179.64469646  .00000125  00000+0  86492-4 0  9997
2 16182  71.0034 266.9565 0005297  86.2864  18.4668 14.16614115102940
SL-14 R/B               
1 16496U 86006B   26179.35681674  .00000490  00000+0  49343-4 0  9990
2 16496  82.5269 155.6019 0074682 265.6840  93.5840 14.86955467165652
COSMOS 1743             
1 16719U 86034A   26179.38283820  .00049713  00000+0  44782-3 0  9995
2 16719  82.5278 316.8193 0004643 230.2195 129.8657 15.67975507197544
SL-14 R/B               
1 16792U 86046B   26179.53524153  .00000414  00000+0  44771-4 0  9997
2 16792  82.4823 335.4513 0022110 218.7003 141.2630 14.85678828142860
SL-14 R/B               
1 16882U 86055B   26179.59307571  .00000374  00000+0  40271-4 0  9992
2 16882  82.5198  22.4083 0018034 329.4120  84.3643 14.85730244135832
AJISAI (EGS)            
1 16908U 86061A   26179.61645194 -.00000108  00000+0 -74441-4 0  9990
2 16908  50.0091 112.2500 0011155 209.6335 206.8143 12.44516728481819
SL-14 R/B               
1 17567U 87024B   26179.52836241  .00000401  00000+0  42839-4 0  9997
2 17567  82.5282 348.5891 0016741 252.1913 107.7477 14.86220535104593
COSMOS 1833             
1 17589U 87027A   26179.50540686  .00000274  00000+0  17214-3 0  9993
2 17589  70.9204  93.0791 0023222  36.2104 324.0584 14.13058432 25970
SL-16 R/B               
1 17590U 87027B   26179.36842268  .00000245  00000+0  14509-3 0  9992
2 17590  71.0033  43.2669 0006805 300.3561  59.6890 14.17173464 31026
SL-14 R/B               
1 17912U 87038B   26179.51301337  .00000357  00000+0  38407-4 0  9994
2 17912  82.5003 192.4038 0019905 154.1197 206.1019 14.85451491 95688
COSMOS 1844             
1 17973U 87041A   26179.35063367  .00000241  00000+0  15020-3 0  9992
2 17973  70.8970 160.7593 0032295 219.1624 140.7161 14.14569388 19231
SL-14 R/B               
1 18153U 87055B   26179.60512053  .00000346  00000+0  36914-4 0  9999
2 18153  82.4988 244.4661 0020808  11.2380 348.9296 14.85717911 86402
COSMOS 1867             
1 18187U 87060A   26179.59041462 -.00000063  00000+0  13866-4 0  9999
2 18187  65.0116 356.1225 0016776 282.1033  77.8171 14.31516937 35814
SL-14 R/B               
1 18749U 88001B   26179.47323137  .00000353  00000+0  37926-4 0  9992
2 18749  82.5134  91.1564 0016776 228.8520 131.1249 14.85616797 58473
COSMOS 1933             
1 18958U 88020A   26179.36988484  .00004038  00000+0  19277-3 0  9997
2 18958  82.5126 141.3609 0004768 150.4032 209.7473 15.18784216 67021
SL-3 R/B                
1 19046U 88032B   26179.55962636  .00003874  00000+0  17696-3 0  9991
2 19046  97.5255 162.5893 0024727 203.2604 156.7514 15.20919520 68959
SL-16 R/B               
1 19120U 88039B   26179.46525698 -.00000132  00000+0 -39780-4 0  9999
2 19120  71.0128 194.3103 0021575 176.0328 184.0972 14.19630649974107
COSMOS 1953             
1 19210U 88050A   26179.65986125  .00007026  00000+0  23936-3 0  9991
2 19210  82.5072  46.4644 0012450  91.4784 268.7883 15.30130577 54746
SL-8 R/B                
1 19257U 88053B   26179.62443481  .00000172  00000+0  64007-4 0  9995
2 19257  74.0478 267.9750 0019258  59.0834  46.7735 14.38971599992554
COSMOS 1975             
1 19573U 88093A   26179.60416404  .00007471  00000+0  25981-3 0  9999
2 19573  82.5185   6.2158 0012304 134.2571 225.9681 15.29471586 36359
SL-14 R/B               
1 19574U 88093B   26179.57769557  .00000385  00000+0  41332-4 0  9992
2 19574  82.5319 297.9511 0021468  34.8490 335.7078 14.85749851 17484
SL-16 R/B               
1 19650U 88102B   26179.58928999  .00000226  00000+0  13835-3 0  9996
2 19650  71.0004 278.1474 0015197 209.3797 150.6474 14.16167881942597
INTERCOSMOS 24          
1 20261U 89080A   26179.61186574  .00000682  00000+0  19395-3 0  9994
2 20261  82.6053  32.2106 1188046  35.4209 332.0191 12.59677538680761
SL-14 R/B               
1 20262U 89080C   26179.52203972  .00000132  00000+0  39881-4 0  9990
2 20262  82.5943 102.0258 1228389 291.4563  56.0008 12.50574832674009
DELTA 1 R/B             
1 20323U 89089B   26179.53083016  .00000299  00000+0  82329-4 0  9992
2 20323  97.0633   9.2738 0070141 131.5378 229.1866 14.50738062911809
ARIANE 40 R/B           
1 20443U 90005H   26179.57973614  .00000235  00000+0  88024-4 0  9999
2 20443  98.2955 236.8415 0009196 225.6824 134.3611 14.39933014908762
DELTA 2 R/B(1)          
1 20453U 90008B   26179.38419674  .00086891  00000+0  59582-3 0  9991
2 20453  35.5987 160.6558 0064340 220.2842 139.3119 15.70573475943468
