OBJECT_NAME,OBJECT_ID,EPOCH,MEAN_MOTION,ECCENTRICITY,INCLINATION,RA_OF_ASC_NODE,ARG_OF_PERICENTER,MEAN_ANOMALY,EPHEMERIS_TYPE,CLASSIFICATION_TYPE,NORAD_CAT_ID,ELEMENT_SET_NO,REV_AT_EPOCH,BSTAR,MEAN_MOTION_DOT,MEAN_MOTION_DDOT
SL-8 R/B,1985-006B,2026-06-28T15:04:49.491840,14.37839168,.00191428,74.0458,57.0105,302.3826,84.5025,0,U,15483,999,16997,.61080379E-4,.158E-5,0
SL-12 R/B(2),1985-042D,2026-06-28T13:38:13.473600,14.22007828,.00368658,71.1064,213.4711,310.7227,162.7568,0,U,15772,999,13015,.60462249E-4,.87E-6,0
SL-14 R/B,1985-069B,2026-06-28T13:04:56.870688,14.86523745,.00187416,82.5274,280.6843,180.4116,179.7089,0,U,15945,999,18930,.44137391E-4,.416E-5,0
SL-16 R/B,1985-097B,2026-06-28T15:28:21.774144,14.16614115,.00052979,71.0034,266.9565,86.2864,18.4668,0,U,16182,999,10294,.86491565E-4,.125E-5,0
SL-14 R/B,1986-006B,2026-06-28T08:33:48.966336,14.86955467,.00746827,82.5269,155.6019,265.6840,93.5840,0,U,16496,999,16565,.49343401E-4,.49E-5,0
COSMOS 1743,1986-034A,2026-06-28T09:11:17.220480,15.67975507,.00046437,82.5278,316.8193,230.2195,129.8657,0,U,16719,999,19754,.44782101E-3,.49713E-3,0
SL-14 R/B,1986-046B,2026-06-28T12:50:44.868192,14.85678828,.00221106,82.4823,335.4513,218.7003,141.2630,0,U,16792,999,14286,.44771128E-4,.414E-5,0
SL-14 R/B,1986-055B,2026-06-28T14:14:01.741344,14.85730244,.00180347,82.5198,22.4083,329.4120,84.3643,0,U,16882,999,13583,.40270626E-4,.374E-5,0
AJISAI (EGS),1986-061A,2026-06-28T14:47:41.447616,12.44516728,.00111559,50.0091,112.2500,209.6335,206.8143,0,U,16908,999,48181,-.74441135E-4,-.108E-5,0
SL-14 R/B,1987-024B,2026-06-28T12:40:50.512224,14.86220535,.00167418,82.5282,348.5891,252.1913,107.7477,0,U,17567,999,10459,.42838726E-4,.401E-5,0
COSMOS 1833,1987-027A,2026-06-28T12:07:47.152704,14.13058432,.0023222,70.9204,93.0791,36.2104,324.0584,0,U,17589,999,2597,.17214184E-3,.274E-5,0
SL-16 R/B,1987-027B,2026-06-28T08:50:31.719552,14.17173464,.0006805,71.0033,43.2669,300.3561,59.6890,0,U,17590,999,3102,.14508728E-3,.245E-5,0
SL-14 R/B,1987-038B,2026-06-28T12:18:44.355168,14.85451491,.00199057,82.5003,192.4038,154.1197,206.1019,0,U,17912,999,9568,.38407086E-4,.357E-5,0
COSMOS 1844,1987-041A,2026-06-28T08:24:54.749088,14.14569388,.00322957,70.8970,160.7593,219.1624,140.7161,0,U,17973,999,1923,.15020447E-3,.241E-5,0
SL-14 R/B,1987-055B,2026-06-28T14:31:22.413792,14.85717911,.00208082,82.4988,244.4661,11.2380,348.9296,0,U,18153,999,8640,.36913889E-4,.346E-5,0
COSMOS 1867,1987-060A,2026-06-28T14:10:11.823168,14.31516937,.0016776,65.0116,356.1225,282.1033,77.8171,0,U,18187,999,3581,.13865715E-4,-.63E-6,0
SL-14 R/B,1988-001B,2026-06-28T11:21:27.190368,14.85616797,.00167765,82.5134,91.1564,228.8520,131.1249,0,U,18749,999,5847,.37926456E-4,.353E-5,0
COSMOS 1933,1988-020A,2026-06-28T08:52:38.050176,15.18784216,.0004768,82.5126,141.3609,150.4032,209.7473,0,U,18958,999,6702,.19276604E-3,.4038E-4,0
SL-3 R/B,1988-032B,2026-06-28T13:25:51.717504,15.20919520,.00247276,97.5255,162.5893,203.2604,156.7514,0,U,19046,999,6895,.17695941E-3,.3874E-4,0
SL-16 R/B,1988-039B,2026-06-28T11:09:58.203072,14.19630649,.00215759,71.0128,194.3103,176.0328,184.0972,0,U,19120,999,97410,-.39780362E-4,-.132E-5,0
COSMOS 1953,1988-050A,2026-06-28T15:50:12.012000,15.30130577,.00124504,82.5072,46.4644,91.4784,268.7883,0,U,19210,999,5474,.23935612E-3,.7026E-4,0
SL-8 R/B,1988-053B,2026-06-28T14:59:11.167584,14.38971599,.00192586,74.0478,267.9750,59.0834,46.7735,0,U,19257,999,99255,.64006584E-4,.172E-5,0
COSMOS 1975,1988-093A,2026-06-28T14:29:59.773056,15.29471586,.00123042,82.5185,6.2158,134.2571,225.9681,0,U,19573,999,3635,.259808E-3,.7471E-4,0
SL-14 R/B,1988-093B,2026-06-28T13:51:52.897248,14.85749851,.00214682,82.5319,297.9511,34.8490,335.7078,0,U,19574,999,1748,.4133223E-4,.385E-5,0
SL-16 R/B,1988-102B,2026-06-28T14:08:34.655136,14.16167881,.00151973,71.0004,278.1474,209.3797,150.6474,0,U,19650,999,94259,.13835002E-3,.226E-5,0
INTERCOSMOS 24,1989-080A,2026-06-28T14:41:05.199936,12.59677538,.11880461,82.6053,32.2106,35.4209,332.0191,0,U,20261,999,68076,.1939531E-3,.682E-5,0
SL-14 R/B,1989-080C,2026-06-28T12:31:44.231808,12.50574832,.12283897,82.5943,102.0258,291.4563,56.0008,0,U,20262,999,67400,.39880733E-4,.132E-5,0
DELTA 1 R/B,1989-089B,2026-06-28T12:44:23.725824,14.50738062,.00701416,97.0633,9.2738,131.5378,229.1866,0,U,20323,999,91180,.82328922E-4,.299E-5,0
ARIANE 40 R/B,1990-005H,2026-06-28T13:54:49.202496,14.39933014,.00091964,98.2955,236.8415,225.6824,134.3611,0,U,20443,999,90876,.88024142E-4,.235E-5,0
DELTA 2 R/B(1),1990-008B,2026-06-28T09:13:14.598336,15.70573475,.00643401,35.5987,160.6558,220.2842,139.3119,0,U,20453,999,94346,.59581597E-3,.86891E-3,0
